UM5-EOSAT               
1 60555U 24149CR  26193.76008200  .00002218  00000+0  17506-3 0  9999
2 60555  97.6776 272.2083 0009201  42.2047 317.9884 15.01719853104050
LASARSAT                
1 62391U 24247Q   26193.99643287  .00028123  00000+0  53151-3 0  9992
2 62391  44.9747 117.0092 0006977 149.4103 210.7196 15.47948222 87318
CROCUBE                 
1 62394U 24247T   26192.99415519  .00027505  00000+0  48357-3 0  9994
2 62394  44.9710 119.5598 0007111 151.4755 208.6527 15.50022679 87199
TEVEL2-4                
1 63213U 25052D   26193.66997237  .00012793  00000+0  37280-3 0  9993
2 63213  97.3881  90.1160 0003752  57.2753 302.8852 15.35507888 74027
TEVEL2-5                
1 63214U 25052E   26194.14966325  .00011850  00000+0  34745-3 0  9998
2 63214  97.3876  90.5369 0003789  56.8499 303.3107 15.35333367 74094
TEVEL2-6                
1 63215U 25052F   26193.70635361  .00012019  00000+0  35290-3 0  9997
2 63215  97.3879  90.0772 0003782  60.8657 299.2965 15.35286777 74025
TEVEL2-1                
1 63217U 25052H   26193.67932411  .00011444  00000+0  34224-3 0  9998
2 63217  97.3853  89.6437 0004433  65.2904 294.8800 15.34718554 74008
TEVEL2-3                
1 63218U 25052J   26193.67298572  .00011907  00000+0  35527-3 0  9993
2 63218  97.3855  89.6625 0004208  66.7009 293.4677 15.34780805 74007
TEVEL2-2                
1 63219U 25052K   26193.67946926  .00011375  00000+0  34007-3 0  9998
2 63219  97.3850  89.6469 0004492  65.9197 294.2516 15.34729067 74007
TEVEL2-9                
1 63237U 25052AD  26194.14738759  .00010512  00000+0  33505-3 0  9998
2 63237  97.3915  89.4327 0007832  62.8126 297.3913 15.32691499 74009
TEVEL2-7                
1 63238U 25052AE  26194.12814935  .00012090  00000+0  38867-3 0  9997
2 63238  97.3913  89.3184 0007880  62.4172 297.7869 15.32378299 73999
TEVEL2-8                
1 63239U 25052AF  26193.67954411  .00011622  00000+0  37402-3 0  9995
2 63239  97.3914  88.8465 0007981  64.8281 295.3788 15.32353925 73922
FORESAIL-1 PRIME        
1 66778U 25276DS  26194.15202082  .00002951  00000+0  14455-3 0  9996
2 66778  97.4194 266.9496 0003042  49.5627 310.5873 15.18928427 34342
